HULIANWANG DIGUI-81     
1 65313U 25187J   26065.28345354 -.00000084  00000+0  85451-4 0  9993
2 65313  50.0057 214.8931 0001056 140.4732 219.6217 13.29341499 26021
HULIANWANG DIGUI-82     
1 65817U 25220A   26065.26782750  .00000039  00000+0  56732-4 0  9992
2 65817  86.4897  78.6217 0002269  99.9806 260.1584 13.24421889 21294
HULIANWANG DIGUI-83     
1 65818U 25220B   26065.26032262  .00000032  00000+0  39785-4 0  9991
2 65818  86.4920  78.6547 0002262  99.8948 260.2441 13.24421102 21298
HULIANWANG DIGUI-84     
1 65819U 25220C   26065.25274038  .00000018  00000+0  74994-5 0  9996
2 65819  86.4857  78.5477 0002254  99.2947 260.8442 13.24421534 21299
HULIANWANG DIGUI-85     
1 65820U 25220D   26065.32068683  .00000014  00000+0 -13362-5 0  9992
2 65820  86.4918  78.6194 0002251 100.4371 259.7016 13.24422056 21305
HULIANWANG DIGUI-86     
1 65821U 25220E   26065.23767321  .00000031  00000+0  37321-4 0  9996
2 65821  86.4897  78.6059 0002245  99.9642 260.1746 13.24420939 21290
HULIANWANG DIGUI-87     
1 65995U 25231A   26065.31985875 -.00000079  00000+0  97026-4 0  9996
2 65995  49.9991 184.8097 0000610 187.9474 172.1389 13.29330323 19203
HULIANWANG DIGUI-88     
1 65996U 25231B   26065.25305597 -.00000074  00000+0  10830-3 0  9999
2 65996  49.9978 185.1092 0000628 193.0565 167.0291 13.29329413 19197
HULIANWANG DIGUI-89     
1 65997U 25231C   26065.31150323 -.00000074  00000+0  10882-3 0  9999
2 65997  49.9956 184.7266 0000643 194.2648 165.8206 13.29330009 19201
HULIANWANG DIGUI-90     
1 65998U 25231D   26065.30314942 -.00000082  00000+0  91316-4 0  9999
2 65998  49.9984 184.7167 0000610 194.8809 165.2045 13.29330158 19202
HULIANWANG DIGUI-91     
1 65999U 25231E   26065.29479797 -.00000080  00000+0  95952-4 0  9996
2 65999  50.0004 184.6975 0000631 193.7441 166.3414 13.29330139 19209
HULIANWANG DIGUI-92     
1 66000U 25231F   26065.28643421 -.00000078  00000+0  98538-4 0  9996
2 66000  50.0045 184.6996 0000629 194.5458 165.5396 13.29330683 19209
HULIANWANG DIGUI-93     
1 66001U 25231G   26065.26976210 -.00000073  00000+0  10960-3 0  9997
2 66001  50.0012 184.5795 0000615 193.6366 166.4490 13.29329789 19203
HULIANWANG DIGUI-94     
1 66002U 25231H   26065.27808257 -.00000073  00000+0  10960-3 0  9994
2 66002  50.0051 184.6677 0000630 194.8593 165.2261 13.29330948 19201
HULIANWANG DIGUI-95     
1 66003U 25231J   26065.26155558 -.00000073  00000+0  11032-3 0  9994
2 66003  50.0024 184.5511 0000634 191.6685 168.4173 13.29325884 19209
HULIANWANG DIGUI-96     
1 66412U 25258A   26064.90913891 -.00000063  00000+0  13117-3 0  9994
2 66412  50.0049 306.0491 0000397 100.0177 260.0740 13.29331488 15992
