[{"OBJECT_NAME":"HULIANWANG DIGUI-81","OBJECT_ID":"2025-187J","EPOCH":"2026-03-06T06:48:10.385856","MEAN_MOTION":13.29341499,"ECCENTRICITY":0.00010566,"INCLINATION":50.0057,"RA_OF_ASC_NODE":214.8931,"ARG_OF_PERICENTER":140.4732,"MEAN_ANOMALY":219.6217,"EPHEMERIS_TYPE":0,"CLASSIFICATION_TYPE":"U","NORAD_CAT_ID":65313,"ELEMENT_SET_NO":999,"REV_AT_EPOCH":2602,"BSTAR":8.5451474e-5,"MEAN_MOTION_DOT":-8.4e-7,"MEAN_MOTION_DDOT":0},{"OBJECT_NAME":"HULIANWANG DIGUI-82","OBJECT_ID":"2025-220A","EPOCH":"2026-03-06T06:25:40.296000","MEAN_MOTION":13.24421889,"ECCENTRICITY":0.0002269,"INCLINATION":86.4897,"RA_OF_ASC_NODE":78.6217,"ARG_OF_PERICENTER":99.9806,"MEAN_ANOMALY":260.1584,"EPHEMERIS_TYPE":0,"CLASSIFICATION_TYPE":"U","NORAD_CAT_ID":65817,"ELEMENT_SET_NO":999,"REV_AT_EPOCH":2129,"BSTAR":5.673193e-5,"MEAN_MOTION_DOT":3.9e-7,"MEAN_MOTION_DDOT":0},{"OBJECT_NAME":"HULIANWANG DIGUI-83","OBJECT_ID":"2025-220B","EPOCH":"2026-03-06T06:14:51.874368","MEAN_MOTION":13.24421102,"ECCENTRICITY":0.00022624,"INCLINATION":86.492,"RA_OF_ASC_NODE":78.6547,"ARG_OF_PERICENTER":99.8948,"MEAN_ANOMALY":260.2441,"EPHEMERIS_TYPE":0,"CLASSIFICATION_TYPE":"U","NORAD_CAT_ID":65818,"ELEMENT_SET_NO":999,"REV_AT_EPOCH":2129,"BSTAR":3.9784952e-5,"MEAN_MOTION_DOT":3.2e-7,"MEAN_MOTION_DDOT":0},{"OBJECT_NAME":"HULIANWANG DIGUI-84","OBJECT_ID":"2025-220C","EPOCH":"2026-03-06T06:03:56.768832","MEAN_MOTION":13.24421534,"ECCENTRICITY":0.00022547,"INCLINATION":86.4857,"RA_OF_ASC_NODE":78.5477,"ARG_OF_PERICENTER":99.2947,"MEAN_ANOMALY":260.8442,"EPHEMERIS_TYPE":0,"CLASSIFICATION_TYPE":"U","NORAD_CAT_ID":65819,"ELEMENT_SET_NO":999,"REV_AT_EPOCH":2129,"BSTAR":7.499409e-6,"MEAN_MOTION_DOT":1.8e-7,"MEAN_MOTION_DDOT":0},{"OBJECT_NAME":"HULIANWANG DIGUI-85","OBJECT_ID":"2025-220D","EPOCH":"2026-03-06T07:41:47.342112","MEAN_MOTION":13.24422056,"ECCENTRICITY":0.00022514,"INCLINATION":86.4918,"RA_OF_ASC_NODE":78.6194,"ARG_OF_PERICENTER":100.4371,"MEAN_ANOMALY":259.7016,"EPHEMERIS_TYPE":0,"CLASSIFICATION_TYPE":"U","NORAD_CAT_ID":65820,"ELEMENT_SET_NO":999,"REV_AT_EPOCH":2130,"BSTAR":-1.336236e-6,"MEAN_MOTION_DOT":1.4e-7,"MEAN_MOTION_DDOT":0},{"OBJECT_NAME":"HULIANWANG DIGUI-86","OBJECT_ID":"2025-220E","EPOCH":"2026-03-06T05:42:14.965344","MEAN_MOTION":13.24420939,"ECCENTRICITY":0.00022459,"INCLINATION":86.4897,"RA_OF_ASC_NODE":78.6059,"ARG_OF_PERICENTER":99.9642,"MEAN_ANOMALY":260.1746,"EPHEMERIS_TYPE":0,"CLASSIFICATION_TYPE":"U","NORAD_CAT_ID":65821,"ELEMENT_SET_NO":999,"REV_AT_EPOCH":2129,"BSTAR":3.7321497e-5,"MEAN_MOTION_DOT":3.1e-7,"MEAN_MOTION_DDOT":0},{"OBJECT_NAME":"HULIANWANG DIGUI-87","OBJECT_ID":"2025-231A","EPOCH":"2026-03-06T07:40:35.796000","MEAN_MOTION":13.29330323,"ECCENTRICITY":6.105e-5,"INCLINATION":49.9991,"RA_OF_ASC_NODE":184.8097,"ARG_OF_PERICENTER":187.9474,"MEAN_ANOMALY":172.1389,"EPHEMERIS_TYPE":0,"CLASSIFICATION_TYPE":"U","NORAD_CAT_ID":65995,"ELEMENT_SET_NO":999,"REV_AT_EPOCH":1920,"BSTAR":9.7025764e-5,"MEAN_MOTION_DOT":-7.9e-7,"MEAN_MOTION_DDOT":0},{"OBJECT_NAME":"HULIANWANG DIGUI-88","OBJECT_ID":"2025-231B","EPOCH":"2026-03-06T06:04:24.035808","MEAN_MOTION":13.29329413,"ECCENTRICITY":6.285e-5,"INCLINATION":49.9978,"RA_OF_ASC_NODE":185.1092,"ARG_OF_PERICENTER":193.0565,"MEAN_ANOMALY":167.0291,"EPHEMERIS_TYPE":0,"CLASSIFICATION_TYPE":"U","NORAD_CAT_ID":65996,"ELEMENT_SET_NO":999,"REV_AT_EPOCH":1919,"BSTAR":0.00010830169,"MEAN_MOTION_DOT":-7.4e-7,"MEAN_MOTION_DDOT":0},{"OBJECT_NAME":"HULIANWANG DIGUI-89","OBJECT_ID":"2025-231C","EPOCH":"2026-03-06T07:28:33.879072","MEAN_MOTION":13.29330009,"ECCENTRICITY":6.43e-5,"INCLINATION":49.9956,"RA_OF_ASC_NODE":184.7266,"ARG_OF_PERICENTER":194.2648,"MEAN_ANOMALY":165.8206,"EPHEMERIS_TYPE":0,"CLASSIFICATION_TYPE":"U","NORAD_CAT_ID":65997,"ELEMENT_SET_NO":999,"REV_AT_EPOCH":1920,"BSTAR":0.00010881585,"MEAN_MOTION_DOT":-7.4e-7,"MEAN_MOTION_DDOT":0},{"OBJECT_NAME":"HULIANWANG DIGUI-90","OBJECT_ID":"2025-231D","EPOCH":"2026-03-06T07:16:32.109888","MEAN_MOTION":13.29330158,"ECCENTRICITY":6.108e-5,"INCLINATION":49.9984,"RA_OF_ASC_NODE":184.7167,"ARG_OF_PERICENTER":194.8809,"MEAN_ANOMALY":165.2045,"EPHEMERIS_TYPE":0,"CLASSIFICATION_TYPE":"U","NORAD_CAT_ID":65998,"ELEMENT_SET_NO":999,"REV_AT_EPOCH":1920,"BSTAR":9.1316357e-5,"MEAN_MOTION_DOT":-8.2e-7,"MEAN_MOTION_DDOT":0},{"OBJECT_NAME":"HULIANWANG DIGUI-91","OBJECT_ID":"2025-231E","EPOCH":"2026-03-06T07:04:30.544608","MEAN_MOTION":13.29330139,"ECCENTRICITY":6.316e-5,"INCLINATION":50.0004,"RA_OF_ASC_NODE":184.6975,"ARG_OF_PERICENTER":193.7441,"MEAN_ANOMALY":166.3414,"EPHEMERIS_TYPE":0,"CLASSIFICATION_TYPE":"U","NORAD_CAT_ID":65999,"ELEMENT_SET_NO":999,"REV_AT_EPOCH":1920,"BSTAR":9.595234e-5,"MEAN_MOTION_DOT":-8.0e-7,"MEAN_MOTION_DDOT":0},{"OBJECT_NAME":"HULIANWANG DIGUI-92","OBJECT_ID":"2025-231F","EPOCH":"2026-03-06T06:52:27.915744","MEAN_MOTION":13.29330683,"ECCENTRICITY":6.299e-5,"INCLINATION":50.0045,"RA_OF_ASC_NODE":184.6996,"ARG_OF_PERICENTER":194.5458,"MEAN_ANOMALY":165.5396,"EPHEMERIS_TYPE":0,"CLASSIFICATION_TYPE":"U","NORAD_CAT_ID":66000,"ELEMENT_SET_NO":999,"REV_AT_EPOCH":1920,"BSTAR":9.8538115e-5,"MEAN_MOTION_DOT":-7.8e-7,"MEAN_MOTION_DDOT":0},{"OBJECT_NAME":"HULIANWANG DIGUI-93","OBJECT_ID":"2025-231G","EPOCH":"2026-03-06T06:28:27.445440","MEAN_MOTION":13.29329789,"ECCENTRICITY":6.151e-5,"INCLINATION":50.0012,"RA_OF_ASC_NODE":184.5795,"ARG_OF_PERICENTER":193.6366,"MEAN_ANOMALY":166.449,"EPHEMERIS_TYPE":0,"CLASSIFICATION_TYPE":"U","NORAD_CAT_ID":66001,"ELEMENT_SET_NO":999,"REV_AT_EPOCH":1920,"BSTAR":0.00010960116,"MEAN_MOTION_DOT":-7.3e-7,"MEAN_MOTION_DDOT":0},{"OBJECT_NAME":"HULIANWANG DIGUI-94","OBJECT_ID":"2025-231H","EPOCH":"2026-03-06T06:40:26.334048","MEAN_MOTION":13.29330948,"ECCENTRICITY":6.303e-5,"INCLINATION":50.0051,"RA_OF_ASC_NODE":184.6677,"ARG_OF_PERICENTER":194.8593,"MEAN_ANOMALY":165.2261,"EPHEMERIS_TYPE":0,"CLASSIFICATION_TYPE":"U","NORAD_CAT_ID":66002,"ELEMENT_SET_NO":999,"REV_AT_EPOCH":1920,"BSTAR":0.00010959936,"MEAN_MOTION_DOT":-7.3e-7,"MEAN_MOTION_DDOT":0},{"OBJECT_NAME":"HULIANWANG DIGUI-95","OBJECT_ID":"2025-231J","EPOCH":"2026-03-06T06:16:38.402112","MEAN_MOTION":13.29325884,"ECCENTRICITY":6.343e-5,"INCLINATION":50.0024,"RA_OF_ASC_NODE":184.5511,"ARG_OF_PERICENTER":191.6685,"MEAN_ANOMALY":168.4173,"EPHEMERIS_TYPE":0,"CLASSIFICATION_TYPE":"U","NORAD_CAT_ID":66003,"ELEMENT_SET_NO":999,"REV_AT_EPOCH":1920,"BSTAR":0.00011032376,"MEAN_MOTION_DOT":-7.3e-7,"MEAN_MOTION_DDOT":0},{"OBJECT_NAME":"HULIANWANG DIGUI-96","OBJECT_ID":"2025-258A","EPOCH":"2026-03-05T21:49:09.601824","MEAN_MOTION":13.29331488,"ECCENTRICITY":3.975e-5,"INCLINATION":50.0049,"RA_OF_ASC_NODE":306.0491,"ARG_OF_PERICENTER":100.0177,"MEAN_ANOMALY":260.074,"EPHEMERIS_TYPE":0,"CLASSIFICATION_TYPE":"U","NORAD_CAT_ID":66412,"ELEMENT_SET_NO":999,"REV_AT_EPOCH":1599,"BSTAR":0.00013117208,"MEAN_MOTION_DOT":-6.3e-7,"MEAN_MOTION_DDOT":0}]
